[{"OBJECT_NAME":"OTB-3-GAZELLE","OBJECT_ID":"2022-127A","EPOCH":"2026-03-09T22:46:18.860160","MEAN_MOTION":14.42635336,"ECCENTRICITY":0.00141015,"INCLINATION":98.3911,"RA_OF_ASC_NODE":62.1873,"ARG_OF_PERICENTER":125.0273,"MEAN_ANOMALY":235.2243,"EPHEMERIS_TYPE":0,"CLASSIFICATION_TYPE":"U","NORAD_CAT_ID":54023,"ELEMENT_SET_NO":999,"REV_AT_EPOCH":18005,"BSTAR":6.3190972e-5,"MEAN_MOTION_DOT":1.67e-6,"MEAN_MOTION_DDOT":0},{"OBJECT_NAME":"CZ-4B DEB","OBJECT_ID":"2011-079F","EPOCH":"2026-03-08T20:34:31.357632","MEAN_MOTION":14.47023946,"ECCENTRICITY":0.01032649,"INCLINATION":98.3459,"RA_OF_ASC_NODE":38.1868,"ARG_OF_PERICENTER":195.383,"MEAN_ANOMALY":195.7119,"EPHEMERIS_TYPE":0,"CLASSIFICATION_TYPE":"U","NORAD_CAT_ID":38312,"ELEMENT_SET_NO":999,"REV_AT_EPOCH":69049,"BSTAR":0.00067718751,"MEAN_MOTION_DOT":2.586e-5,"MEAN_MOTION_DDOT":0}]
